NORAD_CAT_ID,OBJECT_NAME,OBJECT_TYPE,EPOCH,MEAN_MOTION,ECCENTRICITY,INCLINATION,RA_OF_ASC_NODE,ARG_OF_PERICENTER,MEAN_ANOMALY,BSTAR,MEAN_MOTION_DOT,MEAN_MOTION_DDOT,TLE_LINE0,TLE_LINE1,TLE_LINE2,SEMIMAJOR_AXIS,PERIOD,APOGEE,PERIGEE,DECAYED
55654.0,STARLINK-5070,PAYLOAD,2024-03-04 20:06:18,14.98345206,0.0003788,69.9987,237.4406,267.73,92.3426,0.00020106,2.308e-05,0.0,0 STARLINK-5070,1 55654U 23021AC  24064.83771089  .00002308  00000-0  20106-3 0  9997,2 55654  69.9987 237.4406 0003788 267.7300  92.3426 14.98345206 58418,6950.146,96.106,574.644,569.378,0.0
55654.0,STARLINK-5070,PAYLOAD,2024-03-04 21:42:26,14.98346238,0.0003783,69.9987,237.2722,267.7076,92.365,0.00021248,2.444e-05,0.0,0 STARLINK-5070,1 55654U 23021AC  24064.90446963  .00002444  00000-0  21248-3 0  9994,2 55654  69.9987 237.2722 0003783 267.7076  92.3650 14.98346238 58721,6950.143,96.106,574.637,569.378,0.0
55654.0,STARLINK-5070,PAYLOAD,2024-03-05 13:43:47,14.98332143,0.0003469,70.0007,235.5914,266.1232,93.9531,2.0603e-05,1.53e-06,0.0,0 STARLINK-5070,1 55654U 23021AC  24065.57208056  .00000153  00000-0  20603-4 0  9997,2 55654  70.0007 235.5914 0003469 266.1232  93.9531 14.98332143 58825,6950.186,96.107,574.462,569.64,0.0
55654.0,STARLINK-5070,PAYLOAD,2024-03-05 20:08:20,14.98328943,0.0003326,70.0002,234.918,261.4822,98.596,-4.3466e-05,-6.12e-06,0.0,0 STARLINK-5070,1 55654U 23021AC  24065.83912291 -.00000612  00000-0 -43466-4 0  9993,2 55654  70.0002 234.9180 0003326 261.4822  98.5960 14.98328943 58564,6950.196,96.107,574.373,569.75,0.0
55654.0,STARLINK-5070,PAYLOAD,2024-03-06 04:08:59,14.98355752,0.0003416,70.0003,234.076,266.1955,93.8814,-0.00052798,-6.391e-05,0.0,0 STARLINK-5070,1 55654U 23021AC  24066.17291457 -.00006391  00000-0 -52798-3 0  9992,2 55654  70.0003 234.0760 0003416 266.1955  93.8814 14.98355752 58619,6950.113,96.105,574.352,569.604,0.0
55654.0,STARLINK-5070,PAYLOAD,2024-03-06 12:09:40,14.98336762,0.0003466,69.9999,233.2341,263.0034,97.0731,-7.5155e-05,-9.9e-06,0.0,0 STARLINK-5070,1 55654U 23021AC  24066.50671741 -.00000990  00000-0 -75155-4 0  9999,2 55654  69.9999 233.2341 0003466 263.0034  97.0731 14.98336762 58664,6950.172,96.107,574.446,569.628,0.0
55654.0,STARLINK-5070,PAYLOAD,2024-03-06 13:45:48,14.98336059,0.0003458,70.0,233.0661,262.0084,98.0682,-7.5861e-05,-9.98e-06,0.0,0 STARLINK-5070,1 55654U 23021AC  24066.57347755 -.00000998  00000-0 -75861-4 0  9993,2 55654  70.0000 233.0661 0003458 262.0084  98.0682 14.98336059 58977,6950.174,96.107,574.443,569.636,0.0
55654.0,STARLINK-5070,PAYLOAD,2024-03-07 13:47:49,14.98325366,0.0003468,69.9997,230.5397,266.4661,93.6101,6.6354e-05,6.99e-06,0.0,0 STARLINK-5070,1 55654U 23021AC  24067.57488051  .00000699  00000-0  66354-4 0  9992,2 55654  69.9997 230.5397 0003468 266.4661  93.6101 14.98325366 59121,6950.207,96.107,574.483,569.662,0.0
55654.0,STARLINK-5070,PAYLOAD,2024-03-08 01:00:45,14.98333134,0.000354,69.9995,229.3608,268.8241,91.2512,0.00013286,1.493e-05,0.0,0 STARLINK-5070,1 55654U 23021AC  24068.04219505  .00001493  00000-0  13286-3 0  9999,2 55654  69.9995 229.3608 0003540 268.8241  91.2512 14.98333134 58896,6950.183,96.107,574.509,569.588,0.0
55654.0,STARLINK-5070,PAYLOAD,2024-03-08 12:13:42,14.98329801,0.000361,69.9992,228.1821,269.5259,90.5487,9.461e-05,1.036e-05,0.0,0 STARLINK-5070,1 55654U 23021AC  24068.50951826  .00001036  00000-0  94610-4 0  9993,2 55654  69.9992 228.1821 0003610 269.5259  90.5487 14.98329801 59263,6950.194,96.107,574.568,569.549,0.0
55654.0,STARLINK-5070,PAYLOAD,2024-03-08 17:02:06,14.98334546,0.0003627,69.9991,227.6771,269.3169,90.7575,0.00010384,1.146e-05,0.0,0 STARLINK-5070,1 55654U 23021AC  24068.70979489  .00001146  00000-0  10384-3 0  9997,2 55654  69.9991 227.6771 0003627 269.3169  90.7575 14.98334546 59291,6950.179,96.107,574.565,569.523,0.0
55654.0,STARLINK-5070,PAYLOAD,2024-03-09 12:15:43,14.98329309,0.0003512,69.999,225.6572,268.2312,91.8445,4.5144e-05,4.46e-06,0.0,0 STARLINK-5070,1 55654U 23021AC  24069.51091885  .00000446  00000-0  45144-4 0  9997,2 55654  69.9990 225.6572 0003512 268.2312  91.8445 14.98329309 59118,6950.195,96.107,574.501,569.619,0.0
55654.0,STARLINK-5070,PAYLOAD,2024-03-09 17:04:07,14.98331182,0.0003479,69.999,225.1524,267.8885,92.1875,5.5847e-05,5.73e-06,0.0,0 STARLINK-5070,1 55654U 23021AC  24069.71119702  .00000573  00000-0  55847-4 0  9990,2 55654  69.9990 225.1524 0003479 267.8885  92.1875 14.98331182 59441,6950.189,96.107,574.472,569.636,0.0
55654.0,STARLINK-5070,PAYLOAD,2024-03-10 12:17:44,14.98327813,0.0003492,69.9993,223.1327,268.553,91.5229,-2.5549e-06,-1.24e-06,0.0,0 STARLINK-5070,1 55654U 23021AC  24070.51232017 -.00000124  00000-0 -25549-5 0  9996,2 55654  69.9993 223.1327 0003492 268.5530  91.5229 14.98327813 59265,6950.2,96.107,574.492,569.638,0.0
55654.0,STARLINK-5070,PAYLOAD,2024-03-10 20:18:24,14.98330657,0.0003546,69.9997,222.2917,268.5866,91.4887,-2.4428e-05,-3.85e-06,0.0,0 STARLINK-5070,1 55654U 23021AC  24070.84611890 -.00000385  00000-0 -24428-4 0  9995,2 55654  69.9997 222.2917 0003546 268.5866  91.4887 14.98330657 59614,6950.191,96.107,574.52,569.591,0.0
55654.0,STARLINK-5070,PAYLOAD,2024-03-11 12:19:45,14.98329493,0.0003579,69.9995,220.6085,268.5178,91.5571,5.0646e-05,5.11e-06,0.0,0 STARLINK-5070,1 55654U 23021AC  24071.51371783  .00000511  00000-0  50646-4 0  9994,2 55654  69.9995 220.6085 0003579 268.5178  91.5571 14.98329493 59417,6950.194,96.107,574.547,569.572,0.0
55654.0,STARLINK-5070,PAYLOAD,2024-03-11 20:20:24,14.98341191,0.0002984,69.9994,219.7675,266.8632,93.2185,0.00014471,1.635e-05,0.0,0 STARLINK-5070,1 55654U 23021AC  24071.84750710  .00001635  00000-0  14471-3 0  9994,2 55654  69.9994 219.7675 0002984 266.8632  93.2185 14.98341191 59469,6950.158,96.106,574.097,569.949,0.0
55654.0,STARLINK-5070,PAYLOAD,2024-03-12 12:21:45,14.98333592,0.0002888,69.9993,218.0828,254.4749,105.6091,8.1454e-05,8.79e-06,0.0,0 STARLINK-5070,1 55654U 23021AC  24072.51511085  .00000879  00000-0  81454-4 0  9994,2 55654  69.9993 218.0828 0002888 254.4749 105.6091 14.98333592 59566,6950.182,96.107,574.054,570.04,0.0
55654.0,STARLINK-5070,PAYLOAD,2024-03-13 02:46:59,14.98324158,0.0003208,69.9996,216.5656,273.967,86.1122,-9.3085e-05,-1.203e-05,0.0,0 STARLINK-5070,1 55654U 23021AC  24073.11596318 -.00001203  00000-0 -93085-4 0  9990,2 55654  69.9996 216.5656 0003208 273.9670  86.1122 14.98324158 59653,6950.211,96.107,574.306,569.846,0.0
55654.0,STARLINK-5070,PAYLOAD,2024-03-13 12:23:46,14.98330905,0.0003502,69.9992,215.5582,267.9039,92.1719,1.3836e-07,-9.1e-07,0.0,0 STARLINK-5070,1 55654U 23021AC  24073.51651569 -.00000091  00000-0  13836-6 0  9995,2 55654  69.9992 215.5582 0003502 267.9039  92.1719 14.98330905 59718,6950.19,96.107,574.489,569.621,0.0
55654.0,STARLINK-5070,PAYLOAD,2024-03-13 18:48:18,14.98332077,0.000313,69.9995,214.8854,256.3788,103.7022,0.0001014,1.117e-05,0.0,0 STARLINK-5070,1 55654U 23021AC  24073.78355189  .00001117  00000-0  10140-3 0  9994,2 55654  69.9995 214.8854 0003130 256.3788 103.7022 14.98332077 60052,6950.186,96.107,574.227,569.876,0.0
55654.0,STARLINK-5070,PAYLOAD,2024-03-14 12:25:47,14.98328351,0.0003398,69.9999,213.0342,265.4779,94.5992,8.6424e-05,9.38e-06,0.0,0 STARLINK-5070,1 55654U 23021AC  24074.51791269  .00000938  00000-0  86424-4 0  9998,2 55654  69.9999 213.0342 0003398 265.4779  94.5992 14.98328351 59866,6950.198,96.107,574.425,569.701,0.0
55654.0,STARLINK-5070,PAYLOAD,2024-03-14 18:50:19,14.98330355,0.0003391,70.0,212.3611,265.5536,94.5236,0.00010232,1.128e-05,0.0,0 STARLINK-5070,1 55654U 23021AC  24074.78495121  .00001128  00000-0  10232-3 0  9990,2 55654  70.0000 212.3611 0003391 265.5536  94.5236 14.98330355 60206,6950.192,96.107,574.414,569.7,0.0
55654.0,STARLINK-5070,PAYLOAD,2024-03-15 12:27:48,14.98331207,0.0003325,70.0002,210.5102,265.7792,94.2987,1.3849e-05,7.2e-07,0.0,0 STARLINK-5070,1 55654U 23021AC  24075.51931321  .00000072  00000-0  13849-4 0  9994,2 55654  70.0002 210.5102 0003325 265.7792  94.2987 14.98331207 60012,6950.189,96.107,574.365,569.743,0.0
55654.0,STARLINK-5070,PAYLOAD,2024-03-16 12:29:49,14.98330181,0.0003301,70.0002,207.9844,268.2339,91.8442,5.01e-06,-3.3e-07,0.0,0 STARLINK-5070,1 55654U 23021AC  24076.52071409 -.00000033  00000-0  50100-5 0  9998,2 55654  70.0002 207.9844 0003301 268.2339  91.8442 14.98330181 60169,6950.192,96.107,574.352,569.763,0.0
55654.0,STARLINK-5070,PAYLOAD,2024-03-16 14:05:57,14.9833028,0.0003298,70.0003,207.8164,268.2603,91.8178,6.3538e-06,-1.7e-07,0.0,0 STARLINK-5070,1 55654U 23021AC  24076.58747402 -.00000017  00000-0  63538-5 0  9998,2 55654  70.0003 207.8164 0003298 268.2603  91.8178 14.98330280 60473,6950.192,96.107,574.349,569.765,0.0
55654.0,STARLINK-5070,PAYLOAD,2024-03-16 18:54:21,14.98330829,0.0003292,70.0007,207.3125,267.4664,92.6119,1.2021e-05,5e-07,0.0,0 STARLINK-5070,1 55654U 23021AC  24076.78775355  .00000050  00000-0  12021-4 0  9994,2 55654  70.0007 207.3125 0003292 267.4664  92.6119 14.98330829 60508,6950.19,96.107,574.343,569.767,0.0
55654.0,STARLINK-5070,PAYLOAD,2024-03-17 12:31:50,14.98329044,0.0003294,70.0008,205.4607,267.2379,92.8403,4.1028e-05,3.97e-06,0.0,0 STARLINK-5070,1 55654U 23021AC  24077.52211377  .00000397  00000-0  41028-4 0  9999,2 55654  70.0008 205.4607 0003294 267.2379  92.8403 14.98329044 60310,6950.196,96.107,574.35,569.771,0.0
55654.0,STARLINK-5070,PAYLOAD,2024-03-17 18:56:22,14.98332019,0.0003227,70.001,204.7875,266.6575,93.4215,6.9345e-05,7.35e-06,0.0,0 STARLINK-5070,1 55654U 23021AC  24077.78915111  .00000735  00000-0  69345-4 0  9992,2 55654  70.0010 204.7875 0003227 266.6575  93.4215 14.98332019 60650,6950.187,96.107,574.294,569.809,0.0
55654.0,STARLINK-5070,PAYLOAD,2024-03-18 12:33:51,14.98329862,0.0003147,70.0013,202.9363,263.8748,96.2053,5.0253e-05,5.07e-06,0.0,0 STARLINK-5070,1 55654U 23021AC  24078.52351272  .00000507  00000-0  50253-4 0  9992,2 55654  70.0013 202.9363 0003147 263.8748  96.2053 14.98329862 60469,6950.193,96.107,574.246,569.871,0.0
